<?xml version='1.0' encoding='UTF-8'?>
<osm version="0.6" generator="Overpass API 0.7.62.11 87bfad18"><note>The data included in this document is from www.openstreetmap.org. The data is made available under ODbL.</note>
<meta osm_base="2026-10-09T23:38:06Z" />

  <node id="2843302113" lat="41.2828857" lon="-73.9329431" />
  <node id="2843302114" lat="41.2835777" lon="-73.9323918" />
  <node id="2843302115" lat="41.2832712" lon="-73.9326398" />
  <node id="2843302116" lat="41.2835805" lon="-73.9323984" />
  <node id="2843302117" lat="41.2834370" lon="-73.9320666" />
  <node id="2843302118" lat="41.2833248" lon="-73.9321064" />
  <node id="2843302119" lat="41.2833681" lon="-73.9322565" />
  <node id="2843302120" lat="41.2829803" lon="-73.9325415" />
  <node id="2843302121" lat="41.2830100" lon="-73.9325207" />
  <node id="2843302122" lat="41.2829721" lon="-73.9325479" />
  <node id="2843302123" lat="41.2828848" lon="-73.9323513" />
  <node id="2843302124" lat="41.2828016" lon="-73.9323625" />
  <node id="2843302125" lat="41.2828211" lon="-73.9324064" />
  <node id="2843302126" lat="41.2826464" lon="-73.9325428" />
  <node id="2843302127" lat="41.2826297" lon="-73.9325051" />
  <node id="2843302128" lat="41.2825252" lon="-73.9325867" />
  <node id="2843302129" lat="41.2825455" lon="-73.9326325" />
  <node id="2843302130" lat="41.2825220" lon="-73.9326508" />
  <node id="2843302131" lat="41.2825587" lon="-73.9327334" />
  <node id="2843302132" lat="41.2825767" lon="-73.9327193" />
  <node id="2843302133" lat="41.2825854" lon="-73.9327387" />
  <node id="2843302134" lat="41.2827487" lon="-73.9327213" />
  <node id="2843302135" lat="41.2827904" lon="-73.9328579" />
  <node id="2843302136" lat="41.2827393" lon="-73.9328978" />
  <node id="2843302137" lat="41.2829743" lon="-73.9334977" />
  <node id="2846086149" lat="41.2832006" lon="-73.9314366" />
  <node id="2846086150" lat="41.2830896" lon="-73.9312821" />
  <node id="2846086151" lat="41.2831399" lon="-73.9312308" />
  <node id="2846086152" lat="41.2831681" lon="-73.9312779" />
  <node id="2846086153" lat="41.2831851" lon="-73.9312578" />
  <node id="2846086154" lat="41.2831538" lon="-73.9312074" />
  <node id="2846086155" lat="41.2832090" lon="-73.9311470" />
  <node id="2846086156" lat="41.2832373" lon="-73.9311988" />
  <node id="2846086157" lat="41.2832860" lon="-73.9311478" />
  <node id="2846086158" lat="41.2833516" lon="-73.9312847" />
  <node id="2846086159" lat="41.2834184" lon="-73.9311194" />
  <node id="2846086160" lat="41.2832617" lon="-73.9310760" />
  <node id="2846086161" lat="41.2832792" lon="-73.9310048" />
  <node id="2846086162" lat="41.2833433" lon="-73.9310319" />
  <node id="2846086163" lat="41.2833504" lon="-73.9309973" />
  <node id="2846086164" lat="41.2832772" lon="-73.9309703" />
  <node id="2846086165" lat="41.2833046" lon="-73.9308606" />
  <node id="2846086166" lat="41.2833582" lon="-73.9308801" />
  <node id="2846086167" lat="41.2833688" lon="-73.9308313" />
  <node id="2846086168" lat="41.2833144" lon="-73.9308128" />
  <node id="2846086169" lat="41.2833244" lon="-73.9307643" />
  <node id="2846086170" lat="41.2833861" lon="-73.9307930" />
  <node id="2846086171" lat="41.2834022" lon="-73.9307084" />
  <node id="2846086172" lat="41.2835005" lon="-73.9307553" />
  <node id="2889048256" lat="41.2859726" lon="-73.9295508" />
  <node id="2889048257" lat="41.2860758" lon="-73.9295157" />
  <node id="2889048262" lat="41.2854293" lon="-73.9299299" />
  <node id="2889048263" lat="41.2853658" lon="-73.9299480" />
  <node id="2889048264" lat="41.2853730" lon="-73.9302161" />
  <node id="2889048265" lat="41.2855278" lon="-73.9301399" />
  <node id="2889056156" lat="41.2851108" lon="-73.9306675" />
  <node id="2889056157" lat="41.2851964" lon="-73.9307867" />
  <node id="2889056158" lat="41.2849849" lon="-73.9310554" />
  <node id="2890215888" lat="41.2852564" lon="-73.9299089" />
  <node id="2890215889" lat="41.2853140" lon="-73.9298740" />
  <node id="2890215890" lat="41.2852737" lon="-73.9297471" />
  <node id="2890215891" lat="41.2852132" lon="-73.9297837" />
  <node id="2890215892" lat="41.2852034" lon="-73.9299265" />
  <node id="2890215893" lat="41.2850926" lon="-73.9298416" />
  <node id="2890215894" lat="41.2850620" lon="-73.9298576" />
  <node id="2890215895" lat="41.2851046" lon="-73.9300012" />
  <node id="2890215896" lat="41.2848597" lon="-73.9305022" />
  <node id="2890215897" lat="41.2849157" lon="-73.9304591" />
  <node id="2890215898" lat="41.2848775" lon="-73.9303685" />
  <node id="2890215899" lat="41.2848188" lon="-73.9304135" />
  <node id="5648794698" lat="41.2837179" lon="-73.9313711" />
  <node id="5648794699" lat="41.2838088" lon="-73.9313746" />
  <node id="5648794700" lat="41.2838133" lon="-73.9311664" />
  <node id="5648794701" lat="41.2837227" lon="-73.9311539" />
  <node id="8806011685" lat="41.2830904" lon="-73.9334071" />
  <node id="12110838821" lat="41.2842765" lon="-73.9322832" />
  <node id="12110838822" lat="41.2842544" lon="-73.9322539" />
  <node id="12110838823" lat="41.2849017" lon="-73.9313913" />
  <node id="12110838824" lat="41.2849394" lon="-73.9314414" />
  <node id="12110838825" lat="41.2848720" lon="-73.9315312" />
  <node id="12110838826" lat="41.2848563" lon="-73.9315103" />
  <node id="12110838830" lat="41.2848397" lon="-73.9313187" />
  <node id="12110838831" lat="41.2848091" lon="-73.9312784" />
  <node id="12110838832" lat="41.2844502" lon="-73.9317610" />
  <node id="12110838833" lat="41.2844807" lon="-73.9318012" />
  <node id="12110838847" lat="41.2849530" lon="-73.9310110" />
  <node id="12110838848" lat="41.2849686" lon="-73.9309911" />
  <node id="12110838849" lat="41.2849150" lon="-73.9309164" />
  <node id="12110972589" lat="41.2841833" lon="-73.9304686" />
  <node id="12110972590" lat="41.2841047" lon="-73.9305245" />
  <node id="12110972591" lat="41.2840768" lon="-73.9304555" />
  <node id="12110972592" lat="41.2841554" lon="-73.9303996" />
  <node id="12110972736" lat="41.2851232" lon="-73.9304203" />
  <node id="12110972737" lat="41.2850590" lon="-73.9304727" />
  <node id="12110972738" lat="41.2850500" lon="-73.9302848" />
  <node id="12110972739" lat="41.2850666" lon="-73.9302845" />
  <node id="12111174027" lat="41.2853011" lon="-73.9298364" />
  <node id="12111174028" lat="41.2852854" lon="-73.9297809" />
  <node id="12111174029" lat="41.2851439" lon="-73.9299807" />
  <node id="12111174030" lat="41.2851379" lon="-73.9299607" />
  <node id="12111174031" lat="41.2851635" lon="-73.9297921" />
  <node id="12111174032" lat="41.2850894" lon="-73.9298308" />
  <node id="12111404600" lat="41.2859536" lon="-73.9294515" />
  <node id="12111407801" lat="41.2859648" lon="-73.9294477" />
  <node id="13012871300" lat="41.2860926" lon="-73.9300706" />
  <node id="13012871301" lat="41.2859892" lon="-73.9300721" />
  <node id="13012871302" lat="41.2859885" lon="-73.9299461" />
  <node id="13012871303" lat="41.2860210" lon="-73.9299463" />
  <node id="13012871304" lat="41.2860173" lon="-73.9298708" />
  <node id="13012871305" lat="41.2860919" lon="-73.9298589" />
  <node id="13012873204" lat="41.2833561" lon="-73.9312643" />
  <node id="13012873205" lat="41.2833383" lon="-73.9312980" />
  <node id="13012873206" lat="41.2833287" lon="-73.9312956" />
  <node id="13012873207" lat="41.2833006" lon="-73.9313242" />
  <node id="13012873208" lat="41.2832962" lon="-73.9313397" />
  <node id="13012873209" lat="41.2832611" lon="-73.9313742" />
  <node id="13012873210" lat="41.2832490" lon="-73.9313734" />
  <node id="13012873211" lat="41.2832253" lon="-73.9313999" />
  <node id="13012873212" lat="41.2832234" lon="-73.9314147" />
  <node id="13012873213" lat="41.2831607" lon="-73.9313690" />
  <node id="13012873214" lat="41.2831512" lon="-73.9313821" />
  <node id="13012874440" lat="41.2834954" lon="-73.9307807" />
  <node id="13012874441" lat="41.2834830" lon="-73.9307896" />
  <node id="13012874442" lat="41.2834718" lon="-73.9308325" />
  <node id="13012874443" lat="41.2834792" lon="-73.9308493" />
  <node id="13012874444" lat="41.2834673" lon="-73.9309036" />
  <node id="13012874445" lat="41.2834556" lon="-73.9309074" />
  <node id="13012874446" lat="41.2834471" lon="-73.9309489" />
  <node id="13012874447" lat="41.2834536" lon="-73.9309647" />
  <node id="13012874448" lat="41.2834406" lon="-73.9310166" />
  <node id="13012874449" lat="41.2834259" lon="-73.9310215" />
  <node id="13012874450" lat="41.2834187" lon="-73.9310683" />
  <node id="13012874451" lat="41.2834250" lon="-73.9310818" />
  <node id="13012874452" lat="41.2833561" lon="-73.9310946" />
  <node id="13012874453" lat="41.2833519" lon="-73.9311100" />
  <node id="13012874454" lat="41.2833676" lon="-73.9307832" />
  <node id="13012874455" lat="41.2833743" lon="-73.9308041" />
  <node id="13012874456" lat="41.2833946" lon="-73.9307977" />
  <node id="13012874457" lat="41.2834004" lon="-73.9307673" />
  <node id="13012874458" lat="41.2833906" lon="-73.9307632" />
  <node id="13012874459" lat="41.2834931" lon="-73.9307431" />
  <node id="13012877207" lat="41.2855714" lon="-73.9301128" />
  <node id="13012877208" lat="41.2855262" lon="-73.9301230" />
  <node id="13012878467" lat="41.2858166" lon="-73.9299017" />
  <node id="13012878468" lat="41.2858095" lon="-73.9299037" />
  <node id="13012878469" lat="41.2858204" lon="-73.9299879" />
  <node id="13012878470" lat="41.2856614" lon="-73.9300697" />
  <node id="13012878471" lat="41.2856291" lon="-73.9299616" />
  <node id="13012878472" lat="41.2855529" lon="-73.9299819" />
  <node id="13012878473" lat="41.2855532" lon="-73.9299839" />
  <node id="13012879866" lat="41.2853908" lon="-73.9297843" />
  <node id="13012879867" lat="41.2854514" lon="-73.9297606" />
  <node id="13012879868" lat="41.2854663" lon="-73.9298316" />
  <node id="13012879869" lat="41.2855283" lon="-73.9298079" />
  <node id="13012879870" lat="41.2855267" lon="-73.9297836" />
  <node id="13012879871" lat="41.2855351" lon="-73.9297815" />
  <node id="13012879872" lat="41.2855245" lon="-73.9297198" />
  <node id="13012879873" lat="41.2857783" lon="-73.9296417" />
  <node id="13012879874" lat="41.2858021" lon="-73.9298034" />
  <node id="13012879875" lat="41.2855384" lon="-73.9298895" />
  <node id="13012879876" lat="41.2854936" lon="-73.9299052" />
  <node id="13012879877" lat="41.2854289" lon="-73.9299284" />
  <node id="13012879888" lat="41.2837516" lon="-73.9311550" />
  <node id="13012879889" lat="41.2837515" lon="-73.9311640" />
  <node id="13012880616" lat="41.2860567" lon="-73.9294164" />
  <node id="13012881284" lat="41.2835997" lon="-73.9323746" />
  <node id="13012881285" lat="41.2832720" lon="-73.9326416" />
  <node id="13012881286" lat="41.2830429" lon="-73.9333001" />
  <node id="13012881287" lat="41.2830593" lon="-73.9332873" />
  <node id="13012881288" lat="41.2830768" lon="-73.9333268" />
  <node id="13012881289" lat="41.2830604" lon="-73.9333396" />
  <node id="13012881290" lat="41.2829565" lon="-73.9334575" />
  <node id="13012881291" lat="41.2828957" lon="-73.9335050" />
  <node id="13012881292" lat="41.2828756" lon="-73.9334596" />
  <node id="13012881293" lat="41.2829363" lon="-73.9334122" />
  <node id="13012881294" lat="41.2827431" lon="-73.9329692" />
  <node id="13012881295" lat="41.2827628" lon="-73.9329507" />
  <node id="13012881296" lat="41.2827432" lon="-73.9327517" />
  <node id="13012881297" lat="41.2827574" lon="-73.9327407" />
  <node id="13012881298" lat="41.2829185" lon="-73.9325890" />
  <node id="13012881299" lat="41.2828731" lon="-73.9324866" />
  <node id="13012881300" lat="41.2826859" lon="-73.9326325" />
  <node id="13012881301" lat="41.2826951" lon="-73.9326531" />
  <node id="13012881302" lat="41.2828857" lon="-73.9322969" />
  <node id="13012881303" lat="41.2829033" lon="-73.9323368" />
  <node id="13012881304" lat="41.2829656" lon="-73.9325083" />
  <node id="13012881305" lat="41.2829945" lon="-73.9324858" />
  <node id="13012881306" lat="41.2831458" lon="-73.9324147" />
  <node id="13012881307" lat="41.2831332" lon="-73.9323863" />
  <node id="13012881308" lat="41.2831671" lon="-73.9323599" />
  <node id="13012881309" lat="41.2831815" lon="-73.9323925" />
  <node id="13012881310" lat="41.2833453" lon="-73.9322646" />
  <node id="13012881311" lat="41.2833485" lon="-73.9322718" />
  <node id="13012881312" lat="41.2833210" lon="-73.9321505" />
  <node id="13012881313" lat="41.2833384" lon="-73.9321370" />
  <node id="13012881314" lat="41.2834005" lon="-73.9320473" />
  <node id="13012881315" lat="41.2834162" lon="-73.9320828" />
  <node id="13012881316" lat="41.2834834" lon="-73.9321711" />
  <node id="13012881317" lat="41.2835111" lon="-73.9321495" />
  <node id="13012881318" lat="41.2835277" lon="-73.9321869" />
  <node id="13012881319" lat="41.2835396" lon="-73.9321776" />
  <node id="13012881320" lat="41.2835626" lon="-73.9322296" />
  <node id="13012881321" lat="41.2835475" lon="-73.9322414" />
  <node id="13012881322" lat="41.2835653" lon="-73.9322814" />
  <node id="13012881323" lat="41.2835402" lon="-73.9323010" />
  <node id="13012881324" lat="41.2835647" lon="-73.9323562" />
  <node id="13012881325" lat="41.2835846" lon="-73.9323406" />
  <node id="13012881766" lat="41.2853197" lon="-73.9298251" />
  <node id="13012881767" lat="41.2853012" lon="-73.9297713" />
  <way id="280176097">
    <nd ref="13012881325" />
    <nd ref="13012881324" />
    <nd ref="13012881323" />
    <nd ref="13012881322" />
    <nd ref="13012881321" />
    <nd ref="13012881320" />
    <nd ref="13012881319" />
    <nd ref="13012881318" />
    <nd ref="13012881317" />
    <nd ref="13012881316" />
    <nd ref="2843302117" />
    <nd ref="13012881315" />
    <nd ref="13012881314" />
    <nd ref="2843302118" />
    <nd ref="13012881313" />
    <nd ref="13012881312" />
    <nd ref="2843302119" />
    <nd ref="13012881311" />
    <nd ref="13012881310" />
    <nd ref="13012881309" />
    <nd ref="13012881308" />
    <nd ref="13012881307" />
    <nd ref="13012881306" />
    <nd ref="2843302121" />
    <nd ref="13012881305" />
    <nd ref="13012881304" />
    <nd ref="2843302120" />
    <nd ref="2843302122" />
    <nd ref="2843302123" />
    <nd ref="13012881303" />
    <nd ref="13012881302" />
    <nd ref="2843302124" />
    <nd ref="2843302125" />
    <nd ref="2843302126" />
    <nd ref="2843302127" />
    <nd ref="2843302128" />
    <nd ref="2843302129" />
    <nd ref="2843302130" />
    <nd ref="2843302131" />
    <nd ref="2843302132" />
    <nd ref="2843302133" />
    <nd ref="13012881301" />
    <nd ref="13012881300" />
    <nd ref="13012881299" />
    <nd ref="13012881298" />
    <nd ref="2843302134" />
    <nd ref="13012881297" />
    <nd ref="13012881296" />
    <nd ref="2843302135" />
    <nd ref="2843302136" />
    <nd ref="13012881295" />
    <nd ref="13012881294" />
    <nd ref="13012881293" />
    <nd ref="13012881292" />
    <nd ref="13012881291" />
    <nd ref="13012881290" />
    <nd ref="2843302137" />
    <nd ref="8806011685" />
    <nd ref="13012881289" />
    <nd ref="13012881288" />
    <nd ref="13012881287" />
    <nd ref="13012881286" />
    <nd ref="2843302113" />
    <nd ref="13012881285" />
    <nd ref="2843302115" />
    <nd ref="2843302116" />
    <nd ref="2843302114" />
    <nd ref="13012881284" />
    <nd ref="13012881325" />
    <tag k="addr:city" v="Peekskill" />
    <tag k="addr:housenumber" v="250" />
    <tag k="addr:postcode" v="10566" />
    <tag k="addr:state" v="NY" />
    <tag k="addr:street" v="South Street" />
    <tag k="alt_name" v="Mount Saint Francis Convent" />
    <tag k="amenity" v="place_of_worship" />
    <tag k="building" v="yes" />
    <tag k="ele" v="19" />
    <tag k="fixme" v="Determine if name or alt_name is correct" />
    <tag k="gnis:feature_id" v="957903" />
    <tag k="height" v="19.2024" />
    <tag k="name" v="Mount Saint Francis Church" />
    <tag k="religion" v="christian" />
    <tag k="source:geometry:ref" v="WestchesterGIS-BI-211787" />
  </way>
  <way id="280500163">
    <nd ref="2846086155" />
    <nd ref="2846086154" />
    <nd ref="2846086153" />
    <nd ref="2846086152" />
    <nd ref="2846086151" />
    <nd ref="2846086150" />
    <nd ref="13012873214" />
    <nd ref="13012873213" />
    <nd ref="2846086149" />
    <nd ref="13012873212" />
    <nd ref="13012873211" />
    <nd ref="13012873210" />
    <nd ref="13012873209" />
    <nd ref="13012873208" />
    <nd ref="13012873207" />
    <nd ref="13012873206" />
    <nd ref="13012873205" />
    <nd ref="2846086158" />
    <nd ref="13012873204" />
    <nd ref="2846086157" />
    <nd ref="2846086156" />
    <nd ref="2846086155" />
    <tag k="building" v="yes" />
    <tag k="height" v="6.096" />
    <tag k="source:geometry:ref" v="WestchesterGIS-BI-213118" />
  </way>
  <way id="280500165">
    <nd ref="13012874459" />
    <nd ref="2846086171" />
    <nd ref="13012874458" />
    <nd ref="13012874457" />
    <nd ref="13012874456" />
    <nd ref="2846086170" />
    <nd ref="13012874455" />
    <nd ref="13012874454" />
    <nd ref="2846086169" />
    <nd ref="2846086168" />
    <nd ref="2846086167" />
    <nd ref="2846086166" />
    <nd ref="2846086165" />
    <nd ref="2846086164" />
    <nd ref="2846086163" />
    <nd ref="2846086162" />
    <nd ref="2846086161" />
    <nd ref="2846086160" />
    <nd ref="13012874453" />
    <nd ref="13012874452" />
    <nd ref="2846086159" />
    <nd ref="13012874451" />
    <nd ref="13012874450" />
    <nd ref="13012874449" />
    <nd ref="13012874448" />
    <nd ref="13012874447" />
    <nd ref="13012874446" />
    <nd ref="13012874445" />
    <nd ref="13012874444" />
    <nd ref="13012874443" />
    <nd ref="13012874442" />
    <nd ref="13012874441" />
    <nd ref="13012874440" />
    <nd ref="2846086172" />
    <nd ref="13012874459" />
    <tag k="building" v="yes" />
    <tag k="height" v="3.6576" />
    <tag k="source:geometry:ref" v="WestchesterGIS-BI-211766" />
  </way>
  <way id="285220955">
    <nd ref="13012880616" />
    <nd ref="12111407801" />
    <nd ref="12111404600" />
    <nd ref="2889048256" />
    <nd ref="2889048257" />
    <nd ref="13012880616" />
    <tag k="building" v="yes" />
    <tag k="height" v="11.5824" />
    <tag k="source:geometry:ref" v="WestchesterGIS-BI-212360" />
  </way>
  <way id="285220956">
    <nd ref="13012877208" />
    <nd ref="13012879876" />
    <nd ref="13012879877" />
    <nd ref="2889048262" />
    <nd ref="2889048263" />
    <nd ref="2889048264" />
    <nd ref="2889048265" />
    <nd ref="13012877208" />
    <tag k="building" v="yes" />
    <tag k="height" v="4.572" />
    <tag k="source:geometry:ref" v="WestchesterGIS-BI-212200" />
  </way>
  <way id="285221615">
    <nd ref="12110838849" />
    <nd ref="2889056156" />
    <nd ref="2889056157" />
    <nd ref="2889056158" />
    <nd ref="12110838847" />
    <nd ref="12110838848" />
    <nd ref="12110838849" />
    <tag k="building" v="train_station" />
    <tag k="name" v="Peekskill" />
  </way>
  <way id="285355817">
    <nd ref="13012881767" />
    <nd ref="12111174028" />
    <nd ref="2890215890" />
    <nd ref="2890215891" />
    <nd ref="2890215888" />
    <nd ref="2890215889" />
    <nd ref="12111174027" />
    <nd ref="13012881766" />
    <nd ref="13012881767" />
    <tag k="addr:city" v="Peekskill" />
    <tag k="addr:housenumber" v="342" />
    <tag k="addr:postcode" v="10566" />
    <tag k="addr:state" v="NY" />
    <tag k="addr:street" v="South Street" />
    <tag k="building" v="yes" />
    <tag k="height" v="6.4008" />
    <tag k="nysgissam:nysaddresspointid" v="WEST090036" />
    <tag k="source:geometry:ref" v="WestchesterGIS-BI-212153" />
  </way>
  <way id="285355818">
    <nd ref="12111174032" />
    <nd ref="2890215893" />
    <nd ref="2890215894" />
    <nd ref="2890215895" />
    <nd ref="12111174029" />
    <nd ref="12111174030" />
    <nd ref="2890215892" />
    <nd ref="12111174031" />
    <nd ref="12111174032" />
    <tag k="addr:city" v="Peekskill" />
    <tag k="addr:flats" v="1-2" />
    <tag k="addr:housenumber" v="344" />
    <tag k="addr:postcode" v="10566" />
    <tag k="addr:state" v="NY" />
    <tag k="addr:street" v="South Street" />
    <tag k="building" v="yes" />
    <tag k="height" v="7.0104" />
    <tag k="nysgissam:nysaddresspointid" v="WEST090321;WEST331092;WEST287829" />
    <tag k="source:geometry:ref" v="WestchesterGIS-BI-212115" />
  </way>
  <way id="285355819">
    <nd ref="2890215898" />
    <nd ref="2890215899" />
    <nd ref="2890215896" />
    <nd ref="2890215897" />
    <nd ref="2890215898" />
    <tag k="addr:city" v="Peekskill" />
    <tag k="addr:housenumber" v="321" />
    <tag k="addr:postcode" v="10566" />
    <tag k="addr:state" v="NY" />
    <tag k="addr:street" v="Railroad Avenue" />
    <tag k="building" v="yes" />
    <tag k="height" v="3.3528" />
    <tag k="name" v="His &amp; Hers Cleaners" />
    <tag k="nysgissam:nysaddresspointid" v="WEST089831" />
    <tag k="shop" v="dry_cleaning" />
    <tag k="source:geometry:ref" v="WestchesterGIS-BI-212058" />
  </way>
  <way id="591713455">
    <nd ref="5648794700" />
    <nd ref="13012879889" />
    <nd ref="13012879888" />
    <nd ref="5648794701" />
    <nd ref="5648794698" />
    <nd ref="5648794699" />
    <nd ref="5648794700" />
    <tag k="building" v="yes" />
    <tag k="height" v="4.8768" />
    <tag k="source:geometry:ref" v="WestchesterGIS-BI-211823" />
  </way>
  <way id="1307801003">
    <nd ref="12110838821" />
    <nd ref="12110838822" />
    <nd ref="12110838823" />
    <nd ref="12110838824" />
    <nd ref="12110838825" />
    <nd ref="12110838826" />
    <nd ref="12110838821" />
    <tag k="amenity" v="shelter" />
    <tag k="building" v="yes" />
    <tag k="shelter_type" v="public_transport" />
  </way>
  <way id="1307801004">
    <nd ref="12110838830" />
    <nd ref="12110838831" />
    <nd ref="12110838832" />
    <nd ref="12110838833" />
    <nd ref="12110838830" />
    <tag k="amenity" v="shelter" />
    <tag k="building" v="yes" />
    <tag k="shelter_type" v="public_transport" />
  </way>
  <way id="1307801027">
    <nd ref="12110972592" />
    <nd ref="12110972591" />
    <nd ref="12110972590" />
    <nd ref="12110972589" />
    <nd ref="12110972592" />
    <tag k="building" v="yes" />
    <tag k="height" v="6.7056" />
    <tag k="source:geometry:ref" v="WestchesterGIS-BI-211888" />
  </way>
  <way id="1307801049">
    <nd ref="12110972739" />
    <nd ref="12110972738" />
    <nd ref="12110972737" />
    <nd ref="12110972736" />
    <nd ref="12110972739" />
    <tag k="building" v="yes" />
    <tag k="height" v="2.4384" />
    <tag k="source:geometry:ref" v="WestchesterGIS-BI-212097" />
  </way>
  <way id="1416011253">
    <nd ref="13012871305" />
    <nd ref="13012871304" />
    <nd ref="13012871303" />
    <nd ref="13012871302" />
    <nd ref="13012871301" />
    <nd ref="13012871300" />
    <nd ref="13012871305" />
    <tag k="building" v="yes" />
    <tag k="height" v="9.4488" />
    <tag k="source:geometry:ref" v="WestchesterGIS-BI-212364" />
  </way>
  <way id="1416012080">
    <nd ref="13012878473" />
    <nd ref="13012879875" />
    <nd ref="13012879876" />
    <nd ref="13012877208" />
    <nd ref="13012877207" />
    <nd ref="13012878473" />
    <tag k="building" v="yes" />
    <tag k="height" v="4.8768" />
    <tag k="source:geometry:ref" v="WestchesterGIS-BI-212212" />
  </way>
  <way id="1416012269">
    <nd ref="13012879874" />
    <nd ref="13012879875" />
    <nd ref="13012878473" />
    <nd ref="13012878472" />
    <nd ref="13012878471" />
    <nd ref="13012878470" />
    <nd ref="13012878469" />
    <nd ref="13012878468" />
    <nd ref="13012878467" />
    <nd ref="13012879874" />
    <tag k="building" v="yes" />
    <tag k="height" v="10.0584" />
    <tag k="source:geometry:ref" v="WestchesterGIS-BI-212285" />
  </way>
  <way id="1416012463">
    <nd ref="13012879877" />
    <nd ref="13012879876" />
    <nd ref="13012879875" />
    <nd ref="13012879874" />
    <nd ref="13012879873" />
    <nd ref="13012879872" />
    <nd ref="13012879871" />
    <nd ref="13012879870" />
    <nd ref="13012879869" />
    <nd ref="13012879868" />
    <nd ref="13012879867" />
    <nd ref="13012879866" />
    <nd ref="13012879877" />
    <tag k="building" v="yes" />
    <tag k="height" v="6.4008" />
    <tag k="source:geometry:ref" v="WestchesterGIS-BI-212279" />
  </way>
  </osm>